CSG-3                   
1 67304U 26001A   26030.20777885 -.00005604  00000+0 -69207-3 0  9997
2 67304  97.8645 215.8134 0001455  75.2327 284.9047 14.82515684  4020
STARLINK-36490          
1 67305U 26002A   26030.16668981 -.00140484  00000+0 -24267-2 0  9992
2 67305  42.9995 184.3743 0002046 274.1012 296.2050 15.50638128  5288
STARLINK-36488          
1 67306U 26002B   26030.16668981 -.00142872  00000+0 -24685-2 0  9990
2 67306  42.9993 184.3696 0001618 276.8999 295.3164 15.50642200  5227
STARLINK-36481          
1 67307U 26002C   26030.16668981 -.00129632  00000+0 -22362-2 0  9990
2 67307  42.9994 184.3599 0002036 278.1699 297.8881 15.50632138  5220
STARLINK-36449          
1 67308U 26002D   26030.16668981 -.00045253  00000+0 -76985-3 0  9998
2 67308  42.9993 184.3555 0002039 281.6982 296.2922 15.50582806  5280
STARLINK-36482          
1 67309U 26002E   26030.16668981 -.00123090  00000+0 -21193-2 0  9995
2 67309  42.9993 184.3317 0002035 277.8476 309.6910 15.50658158  5222
STARLINK-36491          
1 67310U 26002F   26030.16668981 -.00148944  00000+0 -25753-2 0  9998
2 67310  42.9993 184.3659 0001635 272.5916 301.5422 15.50646723  5223
STARLINK-36495          
1 67311U 26002G   26030.16668981 -.00122444  00000+0 -21102-2 0  9990
2 67311  42.9994 184.3502 0002029 277.6533 302.2381 15.50628223  5385
STARLINK-36485          
1 67312U 26002H   26030.16668981 -.00129295  00000+0 -22303-2 0  9996
2 67312  42.9993 184.3454 0002178 279.7438 302.0687 15.50630521  5227
STARLINK-36445          
1 67313U 26002J   26030.16668981 -.00150990  00000+0 -26116-2 0  9999
2 67313  42.9992 184.3403 0001623 274.1132 309.6123 15.50644491  5381
STARLINK-36476          
1 67314U 26002K   26030.16668981 -.00094772  00000+0 -16279-2 0  9994
2 67314  42.9993 184.3369 0002097 284.7398 300.9185 15.50600248  5228
STARLINK-36463          
1 67315U 26002L   26030.16668981 -.00130026  00000+0 -22443-2 0  9998
2 67315  42.9992 184.3270 0002006 284.4339 305.0609 15.50617255  5280
