CCSDS_OMM_VERS = 2.0
CREATION_DATE  = 
ORIGINATOR     = 

OBJECT_NAME    = CSG-3
OBJECT_ID      = 2026-001A
CENTER_NAME    = EARTH
REF_FRAME      = TEME
TIME_SYSTEM    = UTC
MEAN_ELEMENT_THEORY = SGP/SGP4

EPOCH          = 2026-01-30T04:59:12.092640
MEAN_MOTION    = 14.82515684
ECCENTRICITY   = .0001455
INCLINATION    = 97.8645
RA_OF_ASC_NODE = 215.8134
ARG_OF_PERICENTER = 75.2327
MEAN_ANOMALY   = 284.9047

EPHEMERIS_TYPE = 0
CLASSIFICATION_TYPE = U
NORAD_CAT_ID   = 67304
ELEMENT_SET_NO = 999
REV_AT_EPOCH   = 402
BSTAR          = -.69207E-3
MEAN_MOTION_DOT = -.5604E-4
MEAN_MOTION_DDOT = 0

CCSDS_OMM_VERS = 2.0
CREATION_DATE  = 
ORIGINATOR     = 

OBJECT_NAME    = STARLINK-36490
OBJECT_ID      = 2026-002A
CENTER_NAME    = EARTH
REF_FRAME      = TEME
TIME_SYSTEM    = UTC
MEAN_ELEMENT_THEORY = SGP/SGP4

EPOCH          = 2026-01-30T04:00:01.999584
MEAN_MOTION    = 15.50638128
ECCENTRICITY   = .0002046
INCLINATION    = 42.9995
RA_OF_ASC_NODE = 184.3743
ARG_OF_PERICENTER = 274.1012
MEAN_ANOMALY   = 296.2050

EPHEMERIS_TYPE = 0
CLASSIFICATION_TYPE = U
NORAD_CAT_ID   = 67305
ELEMENT_SET_NO = 999
REV_AT_EPOCH   = 528
BSTAR          = -.24267E-2
MEAN_MOTION_DOT = -.140484E-2
MEAN_MOTION_DDOT = 0

CCSDS_OMM_VERS = 2.0
CREATION_DATE  = 
ORIGINATOR     = 

OBJECT_NAME    = STARLINK-36488
OBJECT_ID      = 2026-002B
CENTER_NAME    = EARTH
REF_FRAME      = TEME
TIME_SYSTEM    = UTC
MEAN_ELEMENT_THEORY = SGP/SGP4

EPOCH          = 2026-01-30T04:00:01.999584
MEAN_MOTION    = 15.50642200
ECCENTRICITY   = .0001618
INCLINATION    = 42.9993
RA_OF_ASC_NODE = 184.3696
ARG_OF_PERICENTER = 276.8999
MEAN_ANOMALY   = 295.3164

EPHEMERIS_TYPE = 0
CLASSIFICATION_TYPE = U
NORAD_CAT_ID   = 67306
ELEMENT_SET_NO = 999
REV_AT_EPOCH   = 522
BSTAR          = -.24685E-2
MEAN_MOTION_DOT = -.142872E-2
MEAN_MOTION_DDOT = 0

CCSDS_OMM_VERS = 2.0
CREATION_DATE  = 
ORIGINATOR     = 

OBJECT_NAME    = STARLINK-36481
OBJECT_ID      = 2026-002C
CENTER_NAME    = EARTH
REF_FRAME      = TEME
TIME_SYSTEM    = UTC
MEAN_ELEMENT_THEORY = SGP/SGP4

EPOCH          = 2026-01-30T04:00:01.999584
MEAN_MOTION    = 15.50632138
ECCENTRICITY   = .0002036
INCLINATION    = 42.9994
RA_OF_ASC_NODE = 184.3599
ARG_OF_PERICENTER = 278.1699
MEAN_ANOMALY   = 297.8881

EPHEMERIS_TYPE = 0
CLASSIFICATION_TYPE = U
NORAD_CAT_ID   = 67307
ELEMENT_SET_NO = 999
REV_AT_EPOCH   = 522
BSTAR          = -.22362E-2
MEAN_MOTION_DOT = -.129632E-2
MEAN_MOTION_DDOT = 0

CCSDS_OMM_VERS = 2.0
CREATION_DATE  = 
ORIGINATOR     = 

OBJECT_NAME    = STARLINK-36449
OBJECT_ID      = 2026-002D
CENTER_NAME    = EARTH
REF_FRAME      = TEME
TIME_SYSTEM    = UTC
MEAN_ELEMENT_THEORY = SGP/SGP4

EPOCH          = 2026-01-30T04:00:01.999584
MEAN_MOTION    = 15.50582806
ECCENTRICITY   = .0002039
INCLINATION    = 42.9993
RA_OF_ASC_NODE = 184.3555
ARG_OF_PERICENTER = 281.6982
MEAN_ANOMALY   = 296.2922

EPHEMERIS_TYPE = 0
CLASSIFICATION_TYPE = U
NORAD_CAT_ID   = 67308
ELEMENT_SET_NO = 999
REV_AT_EPOCH   = 528
BSTAR          = -.76985E-3
MEAN_MOTION_DOT = -.45253E-3
MEAN_MOTION_DDOT = 0

CCSDS_OMM_VERS = 2.0
CREATION_DATE  = 
ORIGINATOR     = 

OBJECT_NAME    = STARLINK-36482
OBJECT_ID      = 2026-002E
CENTER_NAME    = EARTH
REF_FRAME      = TEME
TIME_SYSTEM    = UTC
MEAN_ELEMENT_THEORY = SGP/SGP4

EPOCH          = 2026-01-30T04:00:01.999584
MEAN_MOTION    = 15.50658158
ECCENTRICITY   = .0002035
INCLINATION    = 42.9993
RA_OF_ASC_NODE = 184.3317
ARG_OF_PERICENTER = 277.8476
MEAN_ANOMALY   = 309.6910

EPHEMERIS_TYPE = 0
CLASSIFICATION_TYPE = U
NORAD_CAT_ID   = 67309
ELEMENT_SET_NO = 999
REV_AT_EPOCH   = 522
BSTAR          = -.21193E-2
MEAN_MOTION_DOT = -.12309E-2
MEAN_MOTION_DDOT = 0

CCSDS_OMM_VERS = 2.0
CREATION_DATE  = 
ORIGINATOR     = 

OBJECT_NAME    = STARLINK-36491
OBJECT_ID      = 2026-002F
CENTER_NAME    = EARTH
REF_FRAME      = TEME
TIME_SYSTEM    = UTC
MEAN_ELEMENT_THEORY = SGP/SGP4

EPOCH          = 2026-01-30T04:00:01.999584
MEAN_MOTION    = 15.50646723
ECCENTRICITY   = .0001635
INCLINATION    = 42.9993
RA_OF_ASC_NODE = 184.3659
ARG_OF_PERICENTER = 272.5916
MEAN_ANOMALY   = 301.5422

EPHEMERIS_TYPE = 0
CLASSIFICATION_TYPE = U
NORAD_CAT_ID   = 67310
ELEMENT_SET_NO = 999
REV_AT_EPOCH   = 522
BSTAR          = -.25753E-2
MEAN_MOTION_DOT = -.148944E-2
MEAN_MOTION_DDOT = 0

CCSDS_OMM_VERS = 2.0
CREATION_DATE  = 
ORIGINATOR     = 

OBJECT_NAME    = STARLINK-36495
OBJECT_ID      = 2026-002G
CENTER_NAME    = EARTH
REF_FRAME      = TEME
TIME_SYSTEM    = UTC
MEAN_ELEMENT_THEORY = SGP/SGP4

EPOCH          = 2026-01-30T04:00:01.999584
MEAN_MOTION    = 15.50628223
ECCENTRICITY   = .0002029
INCLINATION    = 42.9994
RA_OF_ASC_NODE = 184.3502
ARG_OF_PERICENTER = 277.6533
MEAN_ANOMALY   = 302.2381

EPHEMERIS_TYPE = 0
CLASSIFICATION_TYPE = U
NORAD_CAT_ID   = 67311
ELEMENT_SET_NO = 999
REV_AT_EPOCH   = 538
BSTAR          = -.21102E-2
MEAN_MOTION_DOT = -.122444E-2
MEAN_MOTION_DDOT = 0

CCSDS_OMM_VERS = 2.0
CREATION_DATE  = 
ORIGINATOR     = 

OBJECT_NAME    = STARLINK-36485
OBJECT_ID      = 2026-002H
CENTER_NAME    = EARTH
REF_FRAME      = TEME
TIME_SYSTEM    = UTC
MEAN_ELEMENT_THEORY = SGP/SGP4

EPOCH          = 2026-01-30T04:00:01.999584
MEAN_MOTION    = 15.50630521
ECCENTRICITY   = .0002178
INCLINATION    = 42.9993
RA_OF_ASC_NODE = 184.3454
ARG_OF_PERICENTER = 279.7438
MEAN_ANOMALY   = 302.0687

EPHEMERIS_TYPE = 0
CLASSIFICATION_TYPE = U
NORAD_CAT_ID   = 67312
ELEMENT_SET_NO = 999
REV_AT_EPOCH   = 522
BSTAR          = -.22303E-2
MEAN_MOTION_DOT = -.129295E-2
MEAN_MOTION_DDOT = 0

CCSDS_OMM_VERS = 2.0
CREATION_DATE  = 
ORIGINATOR     = 

OBJECT_NAME    = STARLINK-36445
OBJECT_ID      = 2026-002J
CENTER_NAME    = EARTH
REF_FRAME      = TEME
TIME_SYSTEM    = UTC
MEAN_ELEMENT_THEORY = SGP/SGP4

EPOCH          = 2026-01-30T04:00:01.999584
MEAN_MOTION    = 15.50644491
ECCENTRICITY   = .0001623
INCLINATION    = 42.9992
RA_OF_ASC_NODE = 184.3403
ARG_OF_PERICENTER = 274.1132
MEAN_ANOMALY   = 309.6123

EPHEMERIS_TYPE = 0
CLASSIFICATION_TYPE = U
NORAD_CAT_ID   = 67313
ELEMENT_SET_NO = 999
REV_AT_EPOCH   = 538
BSTAR          = -.26116E-2
MEAN_MOTION_DOT = -.15099E-2
MEAN_MOTION_DDOT = 0

CCSDS_OMM_VERS = 2.0
CREATION_DATE  = 
ORIGINATOR     = 

OBJECT_NAME    = STARLINK-36476
OBJECT_ID      = 2026-002K
CENTER_NAME    = EARTH
REF_FRAME      = TEME
TIME_SYSTEM    = UTC
MEAN_ELEMENT_THEORY = SGP/SGP4

EPOCH          = 2026-01-30T04:00:01.999584
MEAN_MOTION    = 15.50600248
ECCENTRICITY   = .0002097
INCLINATION    = 42.9993
RA_OF_ASC_NODE = 184.3369
ARG_OF_PERICENTER = 284.7398
MEAN_ANOMALY   = 300.9185

EPHEMERIS_TYPE = 0
CLASSIFICATION_TYPE = U
NORAD_CAT_ID   = 67314
ELEMENT_SET_NO = 999
REV_AT_EPOCH   = 522
BSTAR          = -.16279E-2
MEAN_MOTION_DOT = -.94772E-3
MEAN_MOTION_DDOT = 0

CCSDS_OMM_VERS = 2.0
CREATION_DATE  = 
ORIGINATOR     = 

OBJECT_NAME    = STARLINK-36463
OBJECT_ID      = 2026-002L
CENTER_NAME    = EARTH
REF_FRAME      = TEME
TIME_SYSTEM    = UTC
MEAN_ELEMENT_THEORY = SGP/SGP4

EPOCH          = 2026-01-30T04:00:01.999584
MEAN_MOTION    = 15.50617255
ECCENTRICITY   = .0002006
INCLINATION    = 42.9992
RA_OF_ASC_NODE = 184.3270
ARG_OF_PERICENTER = 284.4339
MEAN_ANOMALY   = 305.0609

EPHEMERIS_TYPE = 0
CLASSIFICATION_TYPE = U
NORAD_CAT_ID   = 67315
ELEMENT_SET_NO = 999
REV_AT_EPOCH   = 528
BSTAR          = -.22443E-2
MEAN_MOTION_DOT = -.130026E-2
MEAN_MOTION_DDOT = 0

